[{
    "OBJECT_NAME": "IRIDIUM 33 DEB",
    "OBJECT_ID": "1997-051KM",
    "EPOCH": "2023-11-02T11:08:53.583648",
    "MEAN_MOTION": 14.46956974,
    "ECCENTRICITY": 0.001119,
    "INCLINATION": 86.3873,
    "RA_OF_ASC_NODE": 9.9443,
    "ARG_OF_PERICENTER": 86.1416,
    "MEAN_ANOMALY": 287.4832,
    "EPHEMERIS_TYPE": 0,
    "CLASSIFICATION_TYPE": "U",
    "NORAD_CAT_ID": 34690,
    "ELEMENT_SET_NO": 999,
    "REV_AT_EPOCH": 76907,
    "BSTAR": 0.0015085,
    "MEAN_MOTION_DOT": 5.503e-5,
    "MEAN_MOTION_DDOT": 0
},{
    "OBJECT_NAME": "IRIDIUM 33 DEB",
    "OBJECT_ID": "1997-051KQ",
    "EPOCH": "2023-11-02T18:16:50.256192",
    "MEAN_MOTION": 14.64992546,
    "ECCENTRICITY": 0.0019081,
    "INCLINATION": 86.3313,
    "RA_OF_ASC_NODE": 301.3318,
    "ARG_OF_PERICENTER": 228.0183,
    "MEAN_ANOMALY": 253.8736,
    "EPHEMERIS_TYPE": 0,
    "CLASSIFICATION_TYPE": "U",
    "NORAD_CAT_ID": 34693,
    "ELEMENT_SET_NO": 999,
    "REV_AT_EPOCH": 77522,
    "BSTAR": 0.0023985,
    "MEAN_MOTION_DOT": 0.00012914,
    "MEAN_MOTION_DDOT": 0
},{
    "OBJECT_NAME": "IRIDIUM 33 DEB",
    "OBJECT_ID": "1997-051KT",
    "EPOCH": "2023-11-02T04:33:17.582976",
    "MEAN_MOTION": 14.25764015,
    "ECCENTRICITY": 0.0127252,
    "INCLINATION": 86.206,
    "RA_OF_ASC_NODE": 12.9074,
    "ARG_OF_PERICENTER": 195.5276,
    "MEAN_ANOMALY": 230.2246,
    "EPHEMERIS_TYPE": 0,
    "CLASSIFICATION_TYPE": "U",
    "NORAD_CAT_ID": 34696,
    "ELEMENT_SET_NO": 999,
    "REV_AT_EPOCH": 75546,
    "BSTAR": 0.0055289,
    "MEAN_MOTION_DOT": 0.0001433,
    "MEAN_MOTION_DDOT": 0
},{
    "OBJECT_NAME": "IRIDIUM 33 DEB",
    "OBJECT_ID": "1997-051KZ",
    "EPOCH": "2023-11-02T08:12:19.303776",
    "MEAN_MOTION": 14.73196658,
    "ECCENTRICITY": 0.0038842,
    "INCLINATION": 86.3028,
    "RA_OF_ASC_NODE": 260.2557,
    "ARG_OF_PERICENTER": 87.0893,
    "MEAN_ANOMALY": 273.4768,
    "EPHEMERIS_TYPE": 0,
    "CLASSIFICATION_TYPE": "U",
    "NORAD_CAT_ID": 34702,
    "ELEMENT_SET_NO": 999,
    "REV_AT_EPOCH": 77944,
    "BSTAR": 0.0028761,
    "MEAN_MOTION_DOT": 0.0001883,
    "MEAN_MOTION_DDOT": 0
},{
    "OBJECT_NAME": "IRIDIUM 33 DEB",
    "OBJECT_ID": "1997-051LJ",
    "EPOCH": "2023-11-02T14:57:54.620640",
    "MEAN_MOTION": 14.36590761,
    "ECCENTRICITY": 0.0015995,
    "INCLINATION": 86.3438,
    "RA_OF_ASC_NODE": 2.4965,
    "ARG_OF_PERICENTER": 226.2255,
    "MEAN_ANOMALY": 262.1685,
    "EPHEMERIS_TYPE": 0,
    "CLASSIFICATION_TYPE": "U",
    "NORAD_CAT_ID": 34765,
    "ELEMENT_SET_NO": 999,
    "REV_AT_EPOCH": 76527,
    "BSTAR": 0.00057823,
    "MEAN_MOTION_DOT": 1.721e-5,
    "MEAN_MOTION_DDOT": 0
},{
    "OBJECT_NAME": "IRIDIUM 33 DEB",
    "OBJECT_ID": "1997-051LS",
    "EPOCH": "2023-11-02T10:36:35.650656",
    "MEAN_MOTION": 14.74852727,
    "ECCENTRICITY": 0.0014417,
    "INCLINATION": 86.4057,
    "RA_OF_ASC_NODE": 2.0482,
    "ARG_OF_PERICENTER": 170.8077,
    "MEAN_ANOMALY": 189.3408,
    "EPHEMERIS_TYPE": 0,
    "CLASSIFICATION_TYPE": "U",
    "NORAD_CAT_ID": 34773,
    "ELEMENT_SET_NO": 999,
    "REV_AT_EPOCH": 77620,
    "BSTAR": 0.0047706,
    "MEAN_MOTION_DOT": 0.00032163,
    "MEAN_MOTION_DDOT": 0
},{
    "OBJECT_NAME": "IRIDIUM 33 DEB",
    "OBJECT_ID": "1997-051LT",
    "EPOCH": "2023-11-02T14:31:11.745120",
    "MEAN_MOTION": 14.87474167,
    "ECCENTRICITY": 0.001259,
    "INCLINATION": 86.4004,
    "RA_OF_ASC_NODE": 353.5711,
    "ARG_OF_PERICENTER": 88.3554,
    "MEAN_ANOMALY": 71.7114,
    "EPHEMERIS_TYPE": 0,
    "CLASSIFICATION_TYPE": "U",
    "NORAD_CAT_ID": 34774,
    "ELEMENT_SET_NO": 999,
    "REV_AT_EPOCH": 77925,
    "BSTAR": 0.005653,
    "MEAN_MOTION_DOT": 0.00051616,
    "MEAN_MOTION_DDOT": 0
},{
    "OBJECT_NAME": "IRIDIUM 33 DEB",
    "OBJECT_ID": "1997-051LU",
    "EPOCH": "2023-11-02T03:27:24.240384",
    "MEAN_MOTION": 14.553844,
    "ECCENTRICITY": 0.0029301,
    "INCLINATION": 86.3814,
    "RA_OF_ASC_NODE": 10.1782,
    "ARG_OF_PERICENTER": 69.919,
    "MEAN_ANOMALY": 321.7423,
    "EPHEMERIS_TYPE": 0,
    "CLASSIFICATION_TYPE": "U",
    "NORAD_CAT_ID": 34775,
    "ELEMENT_SET_NO": 999,
    "REV_AT_EPOCH": 76952,
    "BSTAR": 0.0025199,
    "MEAN_MOTION_DOT": 0.0001103,
    "MEAN_MOTION_DDOT": 0
},{
    "OBJECT_NAME": "IRIDIUM 33 DEB",
    "OBJECT_ID": "1997-051LZ",
    "EPOCH": "2023-11-02T12:34:37.640928",
    "MEAN_MOTION": 14.77962278,
    "ECCENTRICITY": 0.0011705,
    "INCLINATION": 86.3633,
    "RA_OF_ASC_NODE": 335.4221,
    "ARG_OF_PERICENTER": 171.2266,
    "MEAN_ANOMALY": 347.0125,
    "EPHEMERIS_TYPE": 0,
    "CLASSIFICATION_TYPE": "U",
    "NORAD_CAT_ID": 34825,
    "ELEMENT_SET_NO": 999,
    "REV_AT_EPOCH": 77250,
    "BSTAR": 0.0048617,
    "MEAN_MOTION_DOT": 0.00035242,
    "MEAN_MOTION_DDOT": 0
},{
    "OBJECT_NAME": "IRIDIUM 33 DEB",
    "OBJECT_ID": "1997-051MH",
    "EPOCH": "2023-10-31T05:52:21.735264",
    "MEAN_MOTION": 14.43967972,
    "ECCENTRICITY": 0.0023217,
    "INCLINATION": 86.3999,
    "RA_OF_ASC_NODE": 21.8593,
    "ARG_OF_PERICENTER": 151.774,
    "MEAN_ANOMALY": 262.7523,
    "EPHEMERIS_TYPE": 0,
    "CLASSIFICATION_TYPE": "U",
    "NORAD_CAT_ID": 34833,
    "ELEMENT_SET_NO": 999,
    "REV_AT_EPOCH": 76520,
    "BSTAR": 0.0011902,
    "MEAN_MOTION_DOT": 4.096e-5,
    "MEAN_MOTION_DDOT": 0
},{
    "OBJECT_NAME": "IRIDIUM 33 DEB",
    "OBJECT_ID": "1997-051MP",
    "EPOCH": "2023-11-02T03:05:20.197536",
    "MEAN_MOTION": 14.70909182,
    "ECCENTRICITY": 0.0056073,
    "INCLINATION": 86.4466,
    "RA_OF_ASC_NODE": 78.9583,
    "ARG_OF_PERICENTER": 248.3631,
    "MEAN_ANOMALY": 111.1607,
    "EPHEMERIS_TYPE": 0,
    "CLASSIFICATION_TYPE": "U",
    "NORAD_CAT_ID": 34869,
    "ELEMENT_SET_NO": 999,
    "REV_AT_EPOCH": 76235,
    "BSTAR": 0.0097106,
    "MEAN_MOTION_DOT": 0.00061386,
    "MEAN_MOTION_DDOT": 0
},{
    "OBJECT_NAME": "IRIDIUM 33 DEB",
    "OBJECT_ID": "1997-051MQ",
    "EPOCH": "2023-11-02T07:25:33.055968",
    "MEAN_MOTION": 14.56877417,
    "ECCENTRICITY": 0.0025116,
    "INCLINATION": 86.315,
    "RA_OF_ASC_NODE": 301.2004,
    "ARG_OF_PERICENTER": 326.4637,
    "MEAN_ANOMALY": 97.2807,
    "EPHEMERIS_TYPE": 0,
    "CLASSIFICATION_TYPE": "U",
    "NORAD_CAT_ID": 34870,
    "ELEMENT_SET_NO": 999,
    "REV_AT_EPOCH": 77607,
    "BSTAR": 0.0018024,
    "MEAN_MOTION_DOT": 8.137e-5,
    "MEAN_MOTION_DDOT": 0
},{
    "OBJECT_NAME": "IRIDIUM 33 DEB",
    "OBJECT_ID": "1997-051MY",
    "EPOCH": "2023-10-31T19:21:21.080736",
    "MEAN_MOTION": 14.54384198,
    "ECCENTRICITY": 0.0032172,
    "INCLINATION": 86.3299,
    "RA_OF_ASC_NODE": 309.691,
    "ARG_OF_PERICENTER": 330.421,
    "MEAN_ANOMALY": 149.9214,
    "EPHEMERIS_TYPE": 0,
    "CLASSIFICATION_TYPE": "U",
    "NORAD_CAT_ID": 34896,
    "ELEMENT_SET_NO": 999,
    "REV_AT_EPOCH": 76339,
    "BSTAR": 0.00125,
    "MEAN_MOTION_DOT": 5.368e-5,
    "MEAN_MOTION_DDOT": 0
},{
    "OBJECT_NAME": "IRIDIUM 33 DEB",
    "OBJECT_ID": "1997-051NA",
    "EPOCH": "2023-11-02T07:00:59.994720",
    "MEAN_MOTION": 14.94829402,
    "ECCENTRICITY": 0.0011796,
    "INCLINATION": 86.322,
    "RA_OF_ASC_NODE": 258.5307,
    "ARG_OF_PERICENTER": 19.6429,
    "MEAN_ANOMALY": 340.5252,
    "EPHEMERIS_TYPE": 0,
    "CLASSIFICATION_TYPE": "U",
    "NORAD_CAT_ID": 34898,
    "ELEMENT_SET_NO": 999,
    "REV_AT_EPOCH": 77752,
    "BSTAR": 0.0058899,
    "MEAN_MOTION_DOT": 0.00064718,
    "MEAN_MOTION_DDOT": 0
},{
    "OBJECT_NAME": "IRIDIUM 33 DEB",
    "OBJECT_ID": "1997-051NF",
    "EPOCH": "2023-11-02T02:35:26.412576",
    "MEAN_MOTION": 14.21651712,
    "ECCENTRICITY": 0.0153357,
    "INCLINATION": 86.1463,
    "RA_OF_ASC_NODE": 355.1114,
    "ARG_OF_PERICENTER": 288.9439,
    "MEAN_ANOMALY": 99.2462,
    "EPHEMERIS_TYPE": 0,
    "CLASSIFICATION_TYPE": "U",
    "NORAD_CAT_ID": 34926,
    "ELEMENT_SET_NO": 999,
    "REV_AT_EPOCH": 75376,
    "BSTAR": 0.0057108,
    "MEAN_MOTION_DOT": 0.00014154,
    "MEAN_MOTION_DDOT": 0
},{
    "OBJECT_NAME": "IRIDIUM 33 DEB",
    "OBJECT_ID": "1997-051NH",
    "EPOCH": "2023-11-02T18:59:49.475040",
    "MEAN_MOTION": 14.69468242,
    "ECCENTRICITY": 0.0028756,
    "INCLINATION": 86.3948,
    "RA_OF_ASC_NODE": 327.6733,
    "ARG_OF_PERICENTER": 164.5422,
    "MEAN_ANOMALY": 195.6679,
    "EPHEMERIS_TYPE": 0,
    "CLASSIFICATION_TYPE": "U",
    "NORAD_CAT_ID": 34928,
    "ELEMENT_SET_NO": 999,
    "REV_AT_EPOCH": 77428,
    "BSTAR": 0.001915,
    "MEAN_MOTION_DOT": 0.00011445,
    "MEAN_MOTION_DDOT": 0
},{
    "OBJECT_NAME": "IRIDIUM 33 DEB",
    "OBJECT_ID": "1997-051NR",
    "EPOCH": "2023-11-02T04:41:28.953600",
    "MEAN_MOTION": 14.37248046,
    "ECCENTRICITY": 0.0021601,
    "INCLINATION": 86.3755,
    "RA_OF_ASC_NODE": 24.621,
    "ARG_OF_PERICENTER": 242.2303,
    "MEAN_ANOMALY": 148.0102,
    "EPHEMERIS_TYPE": 0,
    "CLASSIFICATION_TYPE": "U",
    "NORAD_CAT_ID": 34985,
    "ELEMENT_SET_NO": 999,
    "REV_AT_EPOCH": 76074,
    "BSTAR": 0.00099093,
    "MEAN_MOTION_DOT": 2.977e-5,
    "MEAN_MOTION_DDOT": 0
},{
    "OBJECT_NAME": "IRIDIUM 33 DEB",
    "OBJECT_ID": "1997-051NS",
    "EPOCH": "2023-11-02T13:43:14.499840",
    "MEAN_MOTION": 14.85607391,
    "ECCENTRICITY": 0.0017775,
    "INCLINATION": 86.3723,
    "RA_OF_ASC_NODE": 351.5906,
    "ARG_OF_PERICENTER": 258.165,
    "MEAN_ANOMALY": 101.758,
    "EPHEMERIS_TYPE": 0,
    "CLASSIFICATION_TYPE": "U",
    "NORAD_CAT_ID": 34986,
    "ELEMENT_SET_NO": 999,
    "REV_AT_EPOCH": 76661,
    "BSTAR": 0.0057459,
    "MEAN_MOTION_DOT": 0.00050184,
    "MEAN_MOTION_DDOT": 0
}]